#dP2024  8 31  6  0  0.00000000      96 __u+U IGS20 EXT  IAC
## 2329 540000.00000000   900.00000000 60553 0.2500000000000
+   54   G01G02G03G04G05G06G07G08G09G10G11G12G13G14G15G16G17
+        G18G19G20G21G22G23G24G25G26G27G28G29G30G31G32R01R02
+        R03R04R05R07R08R09R11R12R14R15R16R17R18R19R20R21R22
+        R24R25R26  0  0  0  0  0  0  0  0  0  0  0  0  0  0
+          0  0  0  0  0  0  0  0  0  0  0  0  0  0  0  0  0
++         0  9  7  8  8  8  7  7  8  8  8  7  9  8  8  9  8
++         9  9  8 10  9  8  9  8 10  8  8  8  7  9  8  7  8
++         8  9  6  9  8  9  8  8  8  7  8  7  8  8  8  7  8
++         8  8  8  0  0  0  0  0  0  0  0  0  0  0  0  0  0
++         0  0  0  0  0  0  0  0  0  0  0  0  0  0  0  0  0
%c M  cc GPS ccc cccc cccc cccc cccc ccccc ccccc ccccc ccccc
%c cc cc ccc ccc cccc cccc cccc cccc ccccc ccccc ccccc ccccc
%f  0.0000000  0.000000000  0.00000000000  0.000000000000000
%f  0.0000000  0.000000000  0.00000000000  0.000000000000000
%i    0    0    0    0      0      0      0      0         0
%i    0    0    0    0      0      0      0      0         0
/* IAC                                ULTRA-RAPID PREDICTION
/* S/V CLOCKS ARE ALIGNED TO GNSS TIME                      
/* G:C1WC2W R:C1PC2P E:C1XC5X C:C2IC6I J:C1CC2S             
/* PCV:IGS20_2317 OL/AL:FES2004  NONE     YN ORB:CoN CLK:CoN
*  2024 08 31 15 30  0.00000000
PG01 -25123.161358  -7276.682548   5156.681962    208.593274
PG02 -11472.131269  20632.907009 -11366.922602   -367.715973
PG03    779.803141  15867.113129 -21472.898176    520.966291
PG04  -1194.304928  26019.794150  -4780.407109    434.851273
PG05  15982.810263  -8150.788721  19424.203562   -185.049048
PG06  20428.705404  -1021.499036 -16937.652969     62.249028
PG07   5987.611577  14838.459161  21674.638374    -43.805108
PG08  -7744.311633  20172.411314  15038.310902    336.093587
PG09   7541.929603  24775.421235   5662.598641    337.013829
PG10 -24520.057074 -10677.805738     79.074095   -110.584264
PG11  23252.711227 -11922.594138  -4530.597802   -728.982430
PG12   3885.971753 -15102.545551 -21782.610986   -534.574864
PG13  13228.366905 -12677.455793  18915.057185    673.953402
PG14  22919.677412  13235.005456   3434.863781    485.047412
PG15   4907.428632 -21439.970317  14250.111030    198.922428
PG16 -19875.370622   2997.348918  17246.579791   -193.571751
PG17  13131.815160  13965.568232 -17892.126000    640.118425
PG18  -5854.260710 -13998.321789  21798.141272   -650.331428
PG19  14924.987887   5305.762386 -21534.447239    531.967171
PG20  23483.194641  -3195.871638  11901.184134    371.111856
PG21 -15379.157704  19839.582196  -6389.070768    102.608838
PG22  24132.284474   9537.868215  -4450.870481    -57.126579
PG23 -17909.810415 -15753.091857  11938.011544    309.789995
PG24  11973.137059 -21279.249783 -10372.971481   -486.774813
PG25  -9368.775500 -17691.031975 -17921.854368    499.518400
PG26 -25656.345389  -3387.353436   6637.458286     89.052073
PG27 -13212.305151   9750.891130  20492.940361    -33.586433
PG28 -19362.880564   -789.199118 -18176.659495   -393.810506
PG29  -3111.881983 -26135.787450   2976.183000   -580.767777
PG30  15720.496631   7043.947602  20426.538745   -329.954107
PG31 -23612.655474   8747.932130  -9266.727335   -225.257720
PG32 -14509.680148 -12206.148560 -18467.918303   -601.369826
PR01 -15394.811300 -10571.073610 -17376.070375     96.259860
PR02  -9135.783657   5703.277430 -23082.607224    -24.412110
PR03   2043.678485  19839.541633 -15823.021504    106.677764
PR04  11537.350088  22739.017453   -175.210991    252.505843
PR05  14951.078323  13548.135266  15595.439022    136.957967
PR07  -2416.691841 -20212.803151  15440.966866     89.942145
PR08 -11804.191602 -22635.935530     54.836146     -6.401341
PR09  22313.969056  -5418.595004 -11175.759475    206.501917
PR11  -9935.597557 -10305.820212 -21092.789271     13.141887
PR12 -24382.938720  -3900.687425  -6389.492924     44.295584
PR14  -7523.245999  10510.447154  22003.751724     26.887071
PR15  11623.341104  10194.358325  20315.798987     76.310566
PR16  24337.948396   3885.635841   6665.031740     28.737192
PR17 -10754.879854  22245.252699  -6435.391791    117.965076
PR18    -45.244347  16230.085293 -19648.741197    159.760706
PR19   9767.986984   4129.635612 -23197.393397   -289.647282
PR20  17002.210085 -14810.050187 -11946.291505   -118.454227
PR21  11277.663427 -22100.017748   5837.625130   -130.572871
PR22   -748.618517 -15666.395126  20144.195469     57.686226
PR24 -16494.992720  15796.438644  11407.285092    -70.108481
PR25  11284.701584 -21835.331613   6774.327687   -101.045494
PR26 -11296.634310 -22808.695526   1533.319488     14.914980
*  2024 08 31 15 45  0.00000000
PG01 -25461.770711  -7686.981330   2377.822186    208.585246
PG02 -12529.446538  21299.513695  -8812.786235   -367.708930
PG03  -1504.743326  14991.655800 -22050.286867    520.978986
PG04  -1515.596736  25343.190315  -7537.183236    434.857832
PG05  17999.614118  -7347.435068  17944.270416   -185.050141
PG06  18874.917801    302.481528 -18664.153432     62.226296
PG07   4106.918717  16242.177008  21041.877789    -43.800563
PG08  -8299.616319  18376.967560  16948.720776    336.105933
PG09   7372.641941  25311.792438   2861.772820    337.028089
PG10 -24323.584924 -10771.355700   2955.905638   -110.594809
PG11  22839.550859 -11332.457673  -7293.800414   -728.986781
PG12   6099.189352 -14067.990098 -21965.663679   -534.577405
PG13  13357.628130 -10393.344677  20181.677157    673.955330
PG14  22312.620717  13279.822052   6174.306263    485.055189
PG15   5696.180305 -19760.835617  16197.997631    198.926384
PG16 -21517.917214   2012.479288  15392.811044   -193.562513
PG17  13146.897289  15996.572149 -16119.511021    640.108973
PG18  -3874.569439 -15454.615075  21229.228661   -650.333808
PG19  14988.132567   7685.058504 -20790.987301    531.971708
PG20  24629.111604  -2718.389678   9419.075567    371.111509
PG21 -16065.656428  20039.110032  -3547.792328    102.608201
PG22  24359.790363   9966.226119  -1606.944505    -57.130145
PG23 -16464.037895 -15386.684124  14256.403744    309.797674
PG24  12914.072485 -21748.841164  -7815.559997   -486.774909
PG25  -7387.000992 -17092.251104 -19374.393145    499.518512
PG26 -26162.917293  -3856.856306   3952.569742     89.044797
PG27 -13681.092535   7340.090346  21206.542296    -33.586683
PG28 -17800.023773  -2283.228220 -19593.416977   -393.823413
PG29  -2887.414239 -26334.235836    101.861019   -580.765660
PG30  13926.725090   8563.942692  21116.847429   -329.947762
PG31 -22815.006865   7878.975104 -11737.848058   -225.257311
PG32 -14696.989162 -14252.371006 -16816.481105   -601.366924
PR01 -16522.891621 -12230.021783 -15101.305601     96.260982
PR02 -10524.540756   3210.980170 -22978.101897    -24.412289
PR03   1100.768816  17961.797935 -18008.503381    106.678404
PR04  11585.326344  22457.039610  -3394.197533    252.507466
PR05  15927.019959  15031.018033  13062.177084    136.958549
PR07  -1516.771475 -18382.852227  17680.350252     89.942943
PR08 -11851.662388 -22381.843805   3263.831271     -6.401386
PR09  23513.093381  -5537.853894  -8301.410277    206.503801
PR11  -7261.896997 -10270.210871 -22173.302864     13.140907
PR12 -23405.195986  -3775.099842  -9397.857871     44.296029
PR14 -10164.336645  10570.051803  20882.471661     26.887140
PR15   9042.686737  10136.221909  21616.480773     76.310143
PR16  23332.574584   3742.385523   9668.347064     28.737628
PR17 -10899.324818  22858.007422  -3278.711949    117.967880
PR18  -1152.019674  18265.979490 -17733.251322    159.762401
PR19   8190.134950   6528.479768 -23258.222329   -289.648503
PR20  15946.145009 -13539.719334 -14608.587320   -118.454697
PR21  11382.665852 -22650.474596   2652.516343   -130.575697
PR22    468.359981 -17703.810195  18386.434966     57.678639
PR24 -15581.807047  14513.692981  14083.013874    -70.109877
PR25  11515.152051 -22451.780634   3643.859184   -101.045377
PR26 -11246.020967 -22394.328066   4725.126951     14.921132
EOF
